{
  "type": "FeatureCollection",
  "features": [
    {
      "type": "Feature",
      "properties": {
        "norad_id": 41866,
        "name": "GOES 16",
        "group": "weather",
        "lat": 0.05332715189080871,
        "lon": 154.32105261547017,
        "alt_km": 35790.479484360076,
        "timestamp": "2025-12-15T11:38:36.800535+00:00",
        "meta_object_name": "GOES 16",
        "meta_object_id": "2016-071A",
        "meta_epoch": "2025-12-14T21:28:52.370112",
        "meta_mean_motion": 1.00271726,
        "meta_eccentricity": 0.0003131,
        "meta_inclination": 0.0685,
        "meta_ra_of_asc_node": 103.8102,
        "meta_arg_of_pericenter": 159.876,
        "meta_mean_anomaly": 37.663,
        "meta_ephemeris_type": 0,
        "meta_classification_type": "U",
        "meta_norad_cat_id": 41866,
        "meta_element_set_no": 999,
        "meta_rev_at_epoch": 3325,
        "meta_bstar": 0,
        "meta_mean_motion_dot": -7.1e-07,
        "meta_mean_motion_ddot": 0,
        "tle_line1": "1 41866U 16071A   25348.89505058 -.00000071  00000+0  00000+0 0  9999",
        "tle_line2": "2 41866   0.0685 103.8102 0003131 159.8760  37.6630  1.00271726 33259"
      },
      "geometry": {
        "type": "Point",
        "coordinates": [
          154.32105261547017,
          0.05332715189080871
        ]
      }
    },
    {
      "type": "Feature",
      "properties": {
        "norad_id": 41882,
        "name": "FENGYUN 4A",
        "group": "weather",
        "lat": -1.5832429610688268,
        "lon": 22.875837453626744,
        "alt_km": 35805.07334434741,
        "timestamp": "2025-12-15T11:38:36.800548+00:00",
        "meta_object_name": "FENGYUN 4A",
        "meta_object_id": "2016-077A",
        "meta_epoch": "2025-12-14T22:34:08.617728",
        "meta_mean_motion": 1.00268788,
        "meta_eccentricity": 0.00046636,
        "meta_inclination": 1.8549,
        "meta_ra_of_asc_node": 82.371,
        "meta_arg_of_pericenter": 145.253,
        "meta_mean_anomaly": 318.5762,
        "meta_ephemeris_type": 0,
        "meta_classification_type": "U",
        "meta_norad_cat_id": 41882,
        "meta_element_set_no": 999,
        "meta_rev_at_epoch": 3308,
        "meta_bstar": 0,
        "meta_mean_motion_dot": -3.37e-06,
        "meta_mean_motion_ddot": 0,
        "tle_line1": "1 41882U 16077A   25348.94037752 -.00000337  00000+0  00000+0 0  9995",
        "tle_line2": "2 41882   1.8549  82.3710 0004663 145.2530 318.5762  1.00268788 33088"
      },
      "geometry": {
        "type": "Point",
        "coordinates": [
          22.875837453626744,
          -1.5832429610688268
        ]
      }
    },
    {
      "type": "Feature",
      "properties": {
        "norad_id": 41884,
        "name": "CYGFM05",
        "group": "weather",
        "lat": -13.874790265965073,
        "lon": -130.09976933389055,
        "alt_km": 416.8344430197476,
        "timestamp": "2025-12-15T11:38:36.800560+00:00",
        "meta_object_name": "CYGFM05",
        "meta_object_id": "2016-078A",
        "meta_epoch": "2025-12-14T13:05:27.014784",
        "meta_mean_motion": 15.47715424,
        "meta_eccentricity": 0.00103023,
        "meta_inclination": 34.9605,
        "meta_ra_of_asc_node": 35.3355,
        "meta_arg_of_pericenter": 199.7033,
        "meta_mean_anomaly": 160.3291,
        "meta_ephemeris_type": 0,
        "meta_classification_type": "U",
        "meta_norad_cat_id": 41884,
        "meta_element_set_no": 999,
        "meta_rev_at_epoch": 50004,
        "meta_bstar": 0.00031699886,
        "meta_mean_motion_dot": 0.00016932,
        "meta_mean_motion_ddot": 0,
        "tle_line1": "1 41884U 16078A   25348.54545156  .00016932  00000+0  31700-3 0  9998",
        "tle_line2": "2 41884  34.9605  35.3355 0010302 199.7033 160.3291 15.47715424500047"
      },
      "geometry": {
        "type": "Point",
        "coordinates": [
          -130.09976933389055,
          -13.874790265965073
        ]
      }
    },
    {
      "type": "Feature",
      "properties": {
        "norad_id": 41885,
        "name": "CYGFM04",
        "group": "weather",
        "lat": 32.28431593854136,
        "lon": 119.05862245690952,
        "alt_km": 412.917511025802,
        "timestamp": "2025-12-15T11:38:36.800570+00:00",
        "meta_object_name": "CYGFM04",
        "meta_object_id": "2016-078B",
        "meta_epoch": "2025-12-14T18:10:05.194848",
        "meta_mean_motion": 15.50454805,
        "meta_eccentricity": 0.00096664,
        "meta_inclination": 34.936,
        "meta_ra_of_asc_node": 8.6715,
        "meta_arg_of_pericenter": 227.8627,
        "meta_mean_anomaly": 132.1274,
        "meta_ephemeris_type": 0,
        "meta_classification_type": "U",
        "meta_norad_cat_id": 41885,
        "meta_element_set_no": 999,
        "meta_rev_at_epoch": 50025,
        "meta_bstar": 0.0003416535,
        "meta_mean_motion_dot": 0.00020114,
        "meta_mean_motion_ddot": 0,
        "tle_line1": "1 41885U 16078B   25348.75700457  .00020114  00000+0  34165-3 0  9994",
        "tle_line2": "2 41885  34.9360   8.6715 0009666 227.8627 132.1274 15.50454805500250"
      },
      "geometry": {
        "type": "Point",
        "coordinates": [
          119.05862245690952,
          32.28431593854136
        ]
      }
    },
    {
      "type": "Feature",
      "properties": {
        "norad_id": 41886,
        "name": "CYGFM02",
        "group": "weather",
        "lat": 22.61058981551066,
        "lon": 145.56875245210688,
        "alt_km": 407.69544875156134,
        "timestamp": "2025-12-15T11:38:36.800581+00:00",
        "meta_object_name": "CYGFM02",
        "meta_object_id": "2016-078C",
        "meta_epoch": "2025-12-14T18:04:08.215104",
        "meta_mean_motion": 15.51840334,
        "meta_eccentricity": 0.00113371,
        "meta_inclination": 34.9447,
        "meta_ra_of_asc_node": 6.9988,
        "meta_arg_of_pericenter": 227.6036,
        "meta_mean_anomaly": 132.3727,
        "meta_ephemeris_type": 0,
        "meta_classification_type": "U",
        "meta_norad_cat_id": 41886,
        "meta_element_set_no": 999,
        "meta_rev_at_epoch": 50038,
        "meta_bstar": 0.00034471489,
        "meta_mean_motion_dot": 0.00021348,
        "meta_mean_motion_ddot": 0,
        "tle_line1": "1 41886U 16078C   25348.75287286  .00021348  00000+0  34471-3 0  9995",
        "tle_line2": "2 41886  34.9447   6.9988 0011337 227.6036 132.3727 15.51840334500386"
      },
      "geometry": {
        "type": "Point",
        "coordinates": [
          145.56875245210688,
          22.61058981551066
        ]
      }
    },
    {
      "type": "Feature",
      "properties": {
        "norad_id": 41887,
        "name": "CYGFM01",
        "group": "weather",
        "lat": -33.53641395639149,
        "lon": -76.80739767476577,
        "alt_km": 419.6736213586337,
        "timestamp": "2025-12-15T11:38:36.800591+00:00",
        "meta_object_name": "CYGFM01",
        "meta_object_id": "2016-078D",
        "meta_epoch": "2025-12-14T12:53:04.318656",
        "meta_mean_motion": 15.48297149,
        "meta_eccentricity": 0.00099043,
        "meta_inclination": 34.9436,
        "meta_ra_of_asc_node": 37.7283,
        "meta_arg_of_pericenter": 191.9393,
        "meta_mean_anomaly": 168.1095,
        "meta_ephemeris_type": 0,
        "meta_classification_type": "U",
        "meta_norad_cat_id": 41887,
        "meta_element_set_no": 999,
        "meta_rev_at_epoch": 49998,
        "meta_bstar": 0.00032899537,
        "meta_mean_motion_dot": 0.00017938,
        "meta_mean_motion_ddot": 0,
        "tle_line1": "1 41887U 16078D   25348.53685554  .00017938  00000+0  32900-3 0  9997",
        "tle_line2": "2 41887  34.9436  37.7283 0009904 191.9393 168.1095 15.48297149499985"
      },
      "geometry": {
        "type": "Point",
        "coordinates": [
          -76.80739767476577,
          -33.53641395639149
        ]
      }
    },
    {
      "type": "Feature",
      "properties": {
        "norad_id": 41888,
        "name": "CYGFM08",
        "group": "weather",
        "lat": -23.817620721264184,
        "lon": -24.71952341715323,
        "alt_km": 419.655408496541,
        "timestamp": "2025-12-15T11:38:36.800602+00:00",
        "meta_object_name": "CYGFM08",
        "meta_object_id": "2016-078E",
        "meta_epoch": "2025-12-14T18:49:39.991296",
        "meta_mean_motion": 15.4951328,
        "meta_eccentricity": 0.00117756,
        "meta_inclination": 34.9469,
        "meta_ra_of_asc_node": 19.0769,
        "meta_arg_of_pericenter": 217.1503,
        "meta_mean_anomaly": 142.8405,
        "meta_ephemeris_type": 0,
        "meta_classification_type": "U",
        "meta_norad_cat_id": 41888,
        "meta_element_set_no": 999,
        "meta_rev_at_epoch": 50025,
        "meta_bstar": 0.0002750149,
        "meta_mean_motion_dot": 0.00015653,
        "meta_mean_motion_ddot": 0,
        "tle_line1": "1 41888U 16078E   25348.78449064  .00015653  00000+0  27501-3 0  9992",
        "tle_line2": "2 41888  34.9469  19.0769 0011775 217.1503 142.8405 15.49513280500252"
      },
      "geometry": {
        "type": "Point",
        "coordinates": [
          -24.71952341715323,
          -23.817620721264184
        ]
      }
    }
  ]
}